{"fetched_at":"2026-05-31T13:43:00Z","count":9024,"tles":[{"name":"STARLINK-36571","line1":"1 67579U 26016U   26151.16067647  .00035964  00000+0  11110-2 0  9993","line2":"2 67579  97.2828 211.4163 0001388   2.7231 357.4019 15.33444677 19503","category":"Starlink"},{"name":"NOAA 12","line1":"1 21263U 91032A   26104.94081089  .00000036  00000+0  32867-4 0  9999","line2":"2 21263  98.6185  94.3874 0013020 209.1526 150.8929 14.26729019815941","category":"Weather"},{"name":"YAOGAN-30 05C","line1":"1 43172U 18011D   26151.21625049  .00004100  00000+0  30352-3 0  9992","line2":"2 43172  34.9968 254.3903 0002673 279.8179  80.2227 15.02633987455532","category":"Other"},{"name":"JILIN-1 GAOFEN 03D51","line1":"1 54252U 22155B   26151.17728352  .00060679  00000+0  73570-3 0  9995","line2":"2 54252  97.6201 294.7124 0004178  66.4235 293.7460 15.60437193197096","category":"Other"},{"name":"STARLINK-34645","line1":"1 64766U 25147M   26150.63864937  .00033029  00000+0  11224-2 0  9996","line2":"2 64766  53.1579 222.4527 0001024  83.2430 276.8687 15.30198023 51295","category":"Starlink"},{"name":"EUTELSAT HOTBIRD 13C","line1":"1 33459U 08065A   26151.13480916 -.00000271  00000+0  00000+0 0  9999","line2":"2 33459   2.9075  79.3897 0004112 351.2214 176.2617  1.00272005 47174","category":"Other"},{"name":"ONEWEB-0223","line1":"1 48768U 21045B   26150.85219978  .00000062  00000+0  13049-3 0  9995","line2":"2 48768  87.9005 262.6426 0001485 101.1230 259.0067 13.15547684242122","category":"Other"},{"name":"STARLINK-30763","line1":"1 58163U 23166P   26150.49321983 -.00001096  00000+0 -24874-4 0  9990","line2":"2 58163  53.1590 187.0701 0001042  81.9752 278.1367 15.30203995145877","category":"Starlink"},{"name":"INTELSAT 15 (IS-15)","line1":"1 36106U 09067A   26151.09035737 -.00000173  00000+0  00000+0 0  9997","line2":"2 36106   0.0159 332.9798 0002510  98.6755 294.6215  1.00272068 41057","category":"Other"},{"name":"2022-023C","line1":"1 51948U 22023C   26151.04210060  .00004466  00000+0  20231-3 0  9994","line2":"2 51948  63.4945 329.4187 0101468 350.3043   9.6108 15.17892171235110","category":"Other"},{"name":"STARLINK-31433","line1":"1 59243U 24049N   26151.05427079  .00000720  00000+0  35675-4 0  9999","line2":"2 59243  42.9987  38.2975 0000842 263.2764  96.7992 15.27595467125003","category":"Starlink"},{"name":"HULIANWANG DIGUI-17","line1":"1 62977U 25030G   26151.19465230 -.00000095  00000+0  62130-4 0  9996","line2":"2 62977  50.0070 296.5328 0001212 113.5673 246.5326 13.29325602 63608","category":"Other"},{"name":"MISR-C-1","line1":"1 68628U 26074B   26150.67742923  .00012370  00000+0  51304-3 0  9991","line2":"2 68628  60.0227 245.5375 0023168   5.1973 354.9343 15.24042211  8107","category":"Other"},{"name":"FENGYUN 1C DEB","line1":"1 30019U 99025MU  23179.17182643  .00009066  00000+0  25472-2 0  9994","line2":"2 30019  98.1502 147.7565 0166141 302.6232  55.9014 14.38318233852399","category":"Weather"},{"name":"STARLINK-1462","line1":"1 45770U 20038AS  23361.94605407 -.00000641  00000+0 -24164-4 0  9999","line2":"2 45770  53.0526 200.2766 0001310 108.7031 251.4100 15.06402224196874","category":"Starlink"},{"name":"2023-048A","line1":"1 56157U 23048A   26151.21519786 -.00000066  00000+0  39802-4 0  9993","line2":"2 56157  63.4001 141.9447 0065724 355.0658   4.9712 13.45389602155652","category":"Other"},{"name":"STARLINK-35367","line1":"1 65883U 25224B   26150.93775487  .00026811  00000+0  80158-3 0  9991","line2":"2 65883  53.1609 348.1338 0000975  63.9541 296.1562 15.34409189 37437","category":"Starlink"},{"name":"FLOCK 1C-1","line1":"1 40027C 14033T   23256.33909722  .00019329  00000-0  14439-2 0  2560","line2":"2 40027  98.0688 220.8000 0010177   8.4777  15.4301 15.02840004    14","category":"Other"},{"name":"STARLINK-4399","line1":"1 53469U 22099E   26151.21349530 -.00002145  00000+0 -14462-3 0  9994","line2":"2 53469  97.4205 272.0694 0001637 118.9671 241.1721 15.05671764208466","category":"Starlink"},{"name":"STARLINK-11139 [DTC]","line1":"1 60402U 24141E   26150.92712753 -.00002949  00000+0 -19523-4 0  9993","line2":"2 60402  53.1586  40.5396 0000525 101.6475 258.4602 15.69682037104666","category":"Starlink"},{"name":"FENGYUN 1C DEB","line1":"1 31480U 99025BVU 26104.80514988  .00002268  00000+0  11456-2 0  9993","line2":"2 31480  98.3355 308.6752 0339414 238.8968 117.8482 13.91280414951065","category":"Weather"},{"name":"STARLINK-2392","line1":"1 47811U 21018AA  23362.04146218  .00003149  00000+0  23021-3 0  9992","line2":"2 47811  53.0528 234.8449 0001417  89.0158 271.0993 15.06402739155553","category":"Starlink"},{"name":"STARLINK-30181","line1":"1 57444U 23105Q   26150.03667578  .00001542  00000+0  65574-4 0  9993","line2":"2 57444  43.0052 163.7752 0001565 276.4687  83.5986 15.27577727158045","category":"Starlink"},{"name":"KUIPER-00033","line1":"1 63746U 25088Y   26150.91317069  .00001389  00000+0  21117-3 0  9994","line2":"2 63746  51.8982 121.9857 0000667  83.6862 276.4177 14.79933888 59790","category":"Other"},{"name":"STARLINK-6225","line1":"1 76225C 23088AW  23186.05048611 -.00977020  00000-0 -57221-2 0  1862","line2":"2 76225  42.9976  42.4478 0001428 267.4688 178.7165 15.78326983    14","category":"Starlink"},{"name":"STARLINK-32247","line1":"1 60446U 24144X   26150.39624898 -.00000322  00000+0  12386-5 0  9990","line2":"2 60446  53.1595 187.1889 0000945 106.9091 253.2014 15.30192102102000","category":"Starlink"},{"name":"STARLINK-35447","line1":"1 66589U 25270B   26150.86514312  .00029359  00000+0  10718-2 0  9990","line2":"2 66589  43.0006 312.0957 0001577 272.6726  87.3945 15.27591834 30383","category":"Starlink"},{"name":"STARLINK-32361","line1":"1 61933U 24207X   26151.04737571  .00018473  00000+0  67899-3 0  9990","line2":"2 61933  43.0004 176.9523 0001257 173.7404 186.3464 15.27587049 87318","category":"Starlink"},{"name":"STARLINK-36533","line1":"1 67643U 26020AC  26151.06494619  .00026758  00000+0  97754-3 0  9992","line2":"2 67643  43.0043  34.4149 0001633 265.8853  94.1812 15.27606956 18716","category":"Starlink"},{"name":"SL-12 R/B(2)","line1":"1 22272U 92088D   26105.00700255 -.00000279  00000+0  00000+0 0  9992","line2":"2 22272  13.7733 348.9036 0009733 334.0605 205.0726  1.00070193 46651","category":"Other"},{"name":"ONEWEB-0712","line1":"1 54680U 22166AQ  26151.18868907  .00000020  00000+0  18789-4 0  9990","line2":"2 54680  87.9106 232.1490 0001847  85.3798 274.7543 13.16592962169829","category":"Other"},{"name":"KUIPER-00084","line1":"1 64830U 25151Q   26150.60083650  .00002951  00000+0  41592-3 0  9997","line2":"2 64830  51.9003 303.3703 0000590  99.7562 260.3467 14.79937898 47365","category":"Other"},{"name":"FENGYUN 1C DEB","line1":"1 33666U 99025DFB 23178.35845759  .00023720  00000+0  28414-2 0  9990","line2":"2 33666  98.8722 215.7399 0054002 201.0873 168.7321 14.83041809832133","category":"Weather"},{"name":"STARLINK-30874","line1":"1 58227U 23170X   26150.85304608 -.00000711  00000+0 -16317-4 0  9997","line2":"2 58227  43.0010  90.3426 0000964 280.0916  79.9827 15.27583285142862","category":"Starlink"},{"name":"FENGYUN 1C DEB","line1":"1 36258U 99025DWK 26102.88406250  .00001923  00000+0  23021-3 0  9998","line2":"2 36258  99.0681 152.1094 0171818 108.2749 253.7237 14.75607500926087","category":"Weather"},{"name":"SPACEBEENZ-11","line1":"1 52019U 22026M   23309.03028489  .06044972  25076-5  30645-2 0  9997","line2":"2 52019  97.4624 321.8673 0007314 202.5897 157.5071 16.20588387 91643","category":"Other"},{"name":"STARLINK-31479","line1":"1 59316U 24056W   26150.98787976  .00000192  00000+0  16478-4 0  9997","line2":"2 59316  43.0016 130.0027 0000867 250.7786 109.2972 15.27574984123692","category":"Starlink"},{"name":"STARLINK-32820","line1":"1 63041U 25034N   26150.64397002  .00011704  00000+0  40663-3 0  9997","line2":"2 63041  53.1601 237.5049 0001199  89.7531 270.3607 15.30201684 71637","category":"Starlink"},{"name":"JILIN GAOFEN OBJECT C","line1":"1 68693U 26080C   26147.32640154  .00005758  00000+0  37061-3 0  9997","line2":"2 68693  97.6607 222.8764 0015189 115.7634 244.5164 15.08671964  6516","category":"Other"},{"name":"FENGYUN 1C DEB","line1":"1 30102U 99025RF  26104.92930278  .00000359  00000+0  16281-3 0  9991","line2":"2 30102  98.3797 111.6702 0141451   0.5984  60.3584 14.22286618997091","category":"Weather"},{"name":"STARLINK-1548","line1":"1 46054U 20055AD  26151.14697470 -.00002504  00000+0 -68952-4 0  9990","line2":"2 46054  53.1610  90.5506 0001378  91.8393 268.2766 15.31699648321706","category":"Starlink"},{"name":"SKYKRAFT-3C","line1":"1 56228U 23084BM  23362.46951588  .00016903  00000+0  80179-3 0  9998","line2":"2 56228  97.5273 117.0961 0009976 244.7473 115.2727 15.19305209 30086","category":"Other"},{"name":"KUIPER-00101","line1":"1 65947U 25228A   26151.01421943  .00000960  00000+0  15493-3 0  9998","line2":"2 65947  51.9000 356.5233 0000651 116.4580 243.6449 14.79934126 35424","category":"Other"},{"name":"CZ-3B DEB","line1":"1 40167U 10042U   26056.82864124  .00000177  00000+0  00000+0 0  9992","line2":"2 40167  27.1668 301.8360 7145376 281.4117  12.3487  1.93604186 93407","category":"Other"},{"name":"STARLINK-34110","line1":"1 63811U 25092H   26151.01630559  .01190159  81208-3  15024-2 0  9993","line2":"2 63811  42.9823  26.3941 0024676 254.6969 105.1184 16.06126246 61720","category":"Starlink"},{"name":"UNKNOWN","line1":"1 81390U          26103.01871420 -.00000365  00000+0 -23597-2 0  9999","line2":"2 81390 103.1045   4.8024 0173650 294.1928  64.1065 12.35603265515075","category":"Other"},{"name":"FLOCK 4BE-13","line1":"1 60512U 24149AW  26151.21504228  .00020511  00000+0  49229-3 0  9990","line2":"2 60512  97.3725 235.4563 0003172 348.1574  11.9598 15.41393995 99754","category":"Other"},{"name":"INTELSAT 33E DEB","line1":"1 61997U 16053P   26104.24486317 -.00000013  00000+0  00000+0 0  9998","line2":"2 61997   1.4081  86.4206 0105722 268.1625  91.3863  1.01609230  5514","category":"Other"}]}